[{"OBJECT_NAME":"GEOSCAN 6 (RS92S6)","OBJECT_ID":"2025-155D","EPOCH":"2026-03-09T21:52:39.201312","MEAN_MOTION":15.27985277,"ECCENTRICITY":0.00087677,"INCLINATION":97.4466,"RA_OF_ASC_NODE":37.2933,"ARG_OF_PERICENTER":153.7679,"MEAN_ANOMALY":206.4006,"EPHEMERIS_TYPE":0,"CLASSIFICATION_TYPE":"U","NORAD_CAT_ID":64879,"ELEMENT_SET_NO":999,"REV_AT_EPOCH":6559,"BSTAR":0.00053762354,"MEAN_MOTION_DOT":0.00014633,"MEAN_MOTION_DDOT":0},{"OBJECT_NAME":"STARLINK-36421","OBJECT_ID":"2026-008V","EPOCH":"2026-03-09T09:53:28.816512","MEAN_MOTION":15.27605189,"ECCENTRICITY":0.00028552,"INCLINATION":42.998,"RA_OF_ASC_NODE":206.4528,"ARG_OF_PERICENTER":282.8553,"MEAN_ANOMALY":77.1979,"EPHEMERIS_TYPE":0,"CLASSIFICATION_TYPE":"U","NORAD_CAT_ID":67464,"ELEMENT_SET_NO":999,"REV_AT_EPOCH":953,"BSTAR":0.0015913194,"MEAN_MOTION_DOT":0.00043825,"MEAN_MOTION_DDOT":0}]
